satname,norad_id,inclination_deg,eccentricity,mean_motion_rev_per_day,perigee_km,apogee_km,l1,l2
STARLINK-1008,44714,53.1541,0.0002327,15.32611539,466.4309900664566,469.6171934385575,1 44714U 19074B   26087.43272486  .00051519  00000+0  16138-2 0  9991,2 44714  53.1541  91.4815 0002327  66.6112 293.5134 15.32611539351748
STARLINK-1012,44718,53.1596,0.0002788,15.31812123,468.4964090565545,472.3151565122362,1 44718U 19074F   26087.42277701  .00058299  00000+0  18691-2 0  9997,2 44718  53.1596  91.6947 0002788  74.4400 285.6909 15.31812123351730
STARLINK-1017,44723,53.0479,0.0002896,15.25730636,486.60374516560387,490.58095480511474,1 44723U 19074L   26087.68020897  .00045703  00000+0  17707-2 0  9996,2 44723  53.0479  83.7320 0002896  82.0941 278.0385 15.25730636351866
STARLINK-1019,44724,53.0406,0.0001007,15.8734027,309.0697334592751,310.41667253215746,1 44724U 19074M   26087.91668981  .00228917  00000+0  83293-3 0  9999,2 44724  53.0406  39.6205 0001007 183.7159 165.3289 15.87340270  6050
STARLINK-1020,44725,53.1619,0.0001979,15.31092311,471.19633226558017,473.90783500488396,1 44725U 19074N   26087.34568333  .00051217  00000+0  16824-2 0  9999,2 44725  53.1619 117.1618 0001979  72.2940 287.8277 15.31092311351369
STARLINK-1031,44736,53.035,0.0002583,16.03372221,263.3716898971288,266.8035797434768,1 44736U 19074Z   26087.85978721  .00536565  14370-3  84360-3 0  9997,2 44736  53.0350  21.5027 0002583 123.1132 237.0147 16.03372221352753
STARLINK-1036,44741,53.0486,0.00053,15.59561761,385.3379437847316,392.51102896028624,1 44741U 19074AE  26087.73137483  .00114639  00000+0  14016-2 0  9997,2 44741  53.0486  96.1025 0005300  20.6389 339.4836 15.59561761351693
STARLINK-1039,44744,53.0588,0.0001074,15.23184139,495.5052228254799,496.9818397636027,1 44744U 19074AH  26087.38951826  .00038165  00000+0  15992-2 0  9999,2 44744  53.0588 129.0411 0001074 314.4320  45.6588 15.23184139351205
STARLINK-1042,44747,53.0455,0.0001656,15.50827942,413.1826384708929,415.4322960784548,1 44747U 19074AL  26087.73533703  .00028409  00000+0  49002-3 0  9991,2 44747  53.0455   3.3452 0001656 145.0359 215.0758 15.50827942353026
STARLINK-1043,44748,53.0513,0.0002546,15.548914,400.74199242269333,404.19467665904267,1 44748U 19074AM  26087.75503409  .00034534  00000+0  51280-3 0  9991,2 44748  53.0513 102.4234 0002546  85.5742 274.5559 15.54891400351610
STARLINK-1046,44751,53.0523,0.000251,15.45529062,428.115173436825,431.532769844589,1 44751U 19074AQ  26087.37456736  .00035967  00000+0  74264-3 0  9991,2 44751  53.0523 121.9234 0002510 274.7122  85.3597 15.45529062351304
STARLINK-1047,44752,53.069,0.0001609,15.32971514,465.85092340901883,468.0536731452039,1 44752U 19074AR  26087.34030531  .00012764  00000+0  40599-3 0  9994,2 44752  53.0690  58.8521 0001609 312.9191  47.1674 15.32971514352207
STARLINK-1048,44753,53.0511,0.000269,15.56804814,395.08883893105485,398.7338149309444,1 44753U 19074AS  26087.67242346  .00112332  00000+0  15245-2 0  9991,2 44753  53.0511  77.0488 0002690  68.2244 291.9053 15.56804814351951
STARLINK-1053,44758,53.0224,0.0005605,16.09567731,244.31541815555192,251.74335067248012,1 44758U 19074AX  26087.42525671  .00870372  43351-3  92924-3 0  9999,2 44758  53.0224 346.6721 0005605 192.5151 167.5744 16.09567731353207
STARLINK-1063,44768,53.158,0.0002876,15.3168856,468.8043506509748,472.7438443142473,1 44768U 19074BH  26087.81632406  .00050840  00000+0  16394-2 0  9994,2 44768  53.1580 130.4690 0002876  57.8110 302.3170 15.31688560351245
STARLINK-1067,44771,53.0506,0.0006421,15.60632649,381.4853373262122,390.1716217950643,1 44771U 19074BL  26087.47767721  .00119215  00000+0  13978-2 0  9996,2 44771  53.0506 112.7962 0006421  37.2385 322.9072 15.60632649351447
STARLINK-1068,44772,53.0461,0.0004756,15.66372237,366.0860285739991,372.50418599444674,1 44772U 19074BM  26087.84174464  .00065579  00000+0  62048-3 0  9990,2 44772  53.0461  85.8599 0004756  17.8027 342.3153 15.66372237351840
STARLINK-1114,44927,53.0472,0.0005443,15.53498479,402.8279915244284,410.21377009347725,1 44927U 20001P   26087.80556503  .00096568  00000+0  14830-2 0  9995,2 44927  53.0472 237.3701 0005443 196.1839 163.8997 15.53498479343069
STARLINK-1123,44930,53.1498,0.0001334,15.29794451,475.51183439692977,477.3406318675279,1 44930U 20001S   26087.78953584  .00041015  00000+0  14068-2 0  9996,2 44930  53.1498 256.5355 0001334  31.3884 328.7196 15.29794451342799
STARLINK-1094,44941,53.1567,0.0001326,15.31137475,471.5089828336404,473.3257498515941,1 44941U 20001AD  26087.75312240  .00049751  00000+0  16326-2 0  9997,2 44941  53.1567 230.9873 0001326  86.5780 273.5372 15.31137475343151
STARLINK-1122,44949,53.1581,0.0001083,15.30207055,474.45178879413834,475.93622028972095,1 44949U 20001AM  26087.71641052  .00002418  00000+0  93729-4 0  9990,2 44949  53.1581 231.2292 0001083  83.8199 276.2926 15.30207055343143
STARLINK-1080,44961,53.0493,0.0002978,15.50397792,413.54059793321176,417.5869261070711,1 44961U 20001AZ  26087.78085255  .00092693  00000+0  15924-2 0  9991,2 44961  53.0493 196.7487 0002978 199.4551 160.6344 15.50397792343633
STARLINK-1090,44968,53.1545,0.0001141,15.30053547,474.8703691892788,476.434403927291,1 44968U 20001BG  26087.75560061  .00034670  00000+0  11826-2 0  9996,2 44968  53.1545 217.9571 0001141  27.5406 332.5655 15.30053547343337
STARLINK-1132,45044,53.1557,0.000419,15.45581995,426.8160611414223,432.5210021769526,1 45044U 20006A   26087.61826406  .00075137  00000+0  15312-2 0  9997,2 45044  53.1557 164.1104 0004190 308.4042  51.6589 15.45581995339851
STARLINK-1131,45047,53.1588,9.23e-05,15.30195137,474.5970237630063,475.86215523542796,1 45047U 20006D   26087.54194027  .00002139  00000+0  84332-4 0  9991,2 45047  53.1588 193.4102 0000923 100.1289 259.9816 15.30195137339434
STARLINK-1134,45048,53.0307,0.0005693,15.45878522,424.9227436320989,432.67311974532004,1 45048U 20006E   26087.45017086  .00037415  00000+0  76258-3 0  9993,2 45048  53.0307 148.9236 0005693 262.3143  97.7217 15.45878522340049
STARLINK-1156,45054,53.1616,9.49e-05,15.30210312,474.5338996295286,475.8346600084378,1 45054U 20006L   26087.69889866  .00002742  00000+0  10462-3 0  9999,2 45054  53.1616 192.6954 0000949  81.0860 279.0248 15.30210312339457
STARLINK-1159,45057,53.0447,0.0003247,15.88522672,304.2536067641395,308.5945607319245,1 45057U 20006P   26087.91668981  .00251584  00000+0  86075-3 0  9993,2 45057  53.0447 137.5595 0003247  30.2106 283.2271 15.88522672  6006
STARLINK-1166,45060,53.0501,0.0001788,15.48261511,420.59576391535484,423.0274255328295,1 45060U 20006S   26087.76653154  .00074125  00000+0  13776-2 0  9997,2 45060  53.0501 181.5869 0001788 291.0019  69.0797 15.48261511339619
STARLINK-1169,45061,53.1584,0.000195,15.31121809,471.12822765677174,473.79996208376997,1 45061U 20006T   26087.72828361  .00009656  00000+0  32832-3 0  9990,2 45061  53.1584 192.5225 0001950  37.9785 322.1353 15.31121809339469
STARLINK-1171,45062,53.0442,0.0003611,15.65759077,368.61941327564546,373.4936808553357,1 45062U 20006U   26087.48902620  .00057181  00000+0  55585-3 0  9991,2 45062  53.0442 157.2303 0003611  29.0525 331.0691 15.65759077339934
STARLINK-1133,45064,53.1608,0.0001054,15.30229008,474.4061239490038,475.85079230757765,1 45064U 20006W   26087.73731635  .00005948  00000+0  21258-3 0  9991,2 45064  53.1608 169.3225 0001054  88.9154 271.1967 15.30229008339791
STARLINK-1167,45071,53.1586,0.00023,15.30698883,472.1499708199626,475.3018277536339,1 45071U 20006AD  26087.63791104  .00050957  00000+0  16945-2 0  9991,2 45071  53.1586 169.8754 0002300  40.2897 319.8274 15.30698883339776
STARLINK-1168,45072,53.1586,0.0001388,15.30200268,474.2630240635808,476.16551437591625,1 45072U 20006AE  26087.91668981 -.00010645  00000+0 -34778-3 0  9996,2 45072  53.1586 168.7009 0001388  84.4388 288.3808 15.30200268  5867
STARLINK-1172,45074,53.1568,0.0001924,15.31710521,469.39091495187495,472.0263507513955,1 45074U 20006AG  26087.64056626  .00047972  00000+0  15472-2 0  9995,2 45074  53.1568 169.7041 0001924  36.4922 323.6210 15.31710521339772
STARLINK-1153,45080,53.1615,0.0002782,15.30731747,471.72166738195665,475.53398933245353,1 45080U 20006AN  26087.49159173  .00049427  00000+0  16426-2 0  9993,2 45080  53.1615 170.4723 0002782  33.0678 327.0497 15.30731747339757
STARLINK-1151,45081,53.0522,0.0003945,15.67806331,362.519595324271,367.84007230615134,1 45081U 20006AP  26087.58350433  .00077298  00000+0  68840-3 0  9991,2 45081  53.0522 146.8542 0003945  36.5451 323.5833 15.67806331340084
STARLINK-1185,45087,53.161,9.82e-05,15.38699213,449.28431621727486,450.6253534536363,1 45087U 20006AV  26087.91668981  .00090057  00000+0  23033-2 0  9996,2 45087  53.1610 152.6132 0000982  85.7871 166.6669 15.38699213  5807
STARLINK-1183,45088,53.1613,0.0001348,15.30189329,474.3230951330861,476.17076744096175,1 45088U 20006AW  26087.56346182 -.00002390  00000+0 -68617-4 0  9998,2 45088  53.1613 154.9149 0001348  89.8667 270.2488 15.30189329339972
STARLINK-1152,45096,53.0384,0.0003039,15.40775708,441.7454756822917,445.89186033730766,1 45096U 20006BE  26087.81105214  .00061711  00000+0  14825-2 0  9994,2 45096  53.0384 116.1187 0003039 331.8604  28.2235 15.40775708340535
STARLINK-1184,45098,53.0522,0.0003016,15.11165766,530.5592804102571,534.7278632511852,1 45098U 20006BG  26087.52081088  .00025992  00000+0  15433-2 0  9993,2 45098  53.0522 160.3134 0003016 187.2331 172.8618 15.11165766339881
STARLINK-1193,45100,53.0512,0.0005774,15.58984933,386.6853372485275,394.50186734806175,1 45100U 20006BJ  26087.83502397  .00045344  00000+0  57536-3 0  9996,2 45100  53.0512 137.5061 0005774  35.0544 325.0847 15.58984933340231
STARLINK-1143,45179,53.0431,0.0004067,15.67503006,363.30687065554866,368.79259214286867,1 45179U 20012B   26087.91668981  .00204624  00000+0  18083-2 0  9991,2 45179  53.0431 235.5184 0004067 189.7636 187.7102 15.67503006  5980
